[{"OBJECT_NAME":"TEVEL2-8","OBJECT_ID":"2025-052AF","EPOCH":"2026-03-09T16:02:08.542752","MEAN_MOTION":15.28392908,"ECCENTRICITY":0.0008031,"INCLINATION":97.4055,"RA_OF_ASC_NODE":324.2923,"ARG_OF_PERICENTER":124.9191,"MEAN_ANOMALY":235.2804,"EPHEMERIS_TYPE":0,"CLASSIFICATION_TYPE":"U","NORAD_CAT_ID":63239,"ELEMENT_SET_NO":999,"REV_AT_EPOCH":5480,"BSTAR":0.00069303947,"MEAN_MOTION_DOT":0.0001913,"MEAN_MOTION_DDOT":0},{"OBJECT_NAME":"STARLINK-33770","OBJECT_ID":"2025-095S","EPOCH":"2026-03-09T07:34:44.732064","MEAN_MOTION":15.27590928,"ECCENTRICITY":0.00014853,"INCLINATION":42.9963,"RA_OF_ASC_NODE":178.0606,"ARG_OF_PERICENTER":252.4528,"MEAN_ANOMALY":107.6161,"EPHEMERIS_TYPE":0,"CLASSIFICATION_TYPE":"U","NORAD_CAT_ID":63906,"ELEMENT_SET_NO":999,"REV_AT_EPOCH":4772,"BSTAR":0.0011855791,"MEAN_MOTION_DOT":0.00032518,"MEAN_MOTION_DDOT":0}]
